25943,GLOBALSTAR M057,1999,117.57,-1.0,-,52.0,Inactive,0,LEO,Kazakhstan,Globalstar,Unknown,Unknown,Unknown,1 25943U 99058A   24205.31799670 -.00000077  00000+0  14662-3 0  9995,2 25943  51.9954 201.5063 0002148  54.6324 305.4726 12.24790238126637,12.24790238,0.0002148,LEO
25944,GLOBALSTAR M059,1999,120.0,-1.0,-,52.0,Inactive,0,LEO,Kazakhstan,Globalstar,Unknown,Unknown,Unknown,1 25944U 99058B   24205.83598528 -.00000067  00000+0  24114-3 0  9994,2 25944  52.0038  15.4572 0001051  68.2706  79.3849 11.99966315534624,11.99966315,0.0001051,LEO
25945,GLOBALSTAR M056,1999,119.52,-1.0,-,52.0,Inactive,0,LEO,Kazakhstan,Globalstar,Unknown,Unknown,Unknown,1 25945U 99058C   24206.53927486 -.00000123  00000+0 -41599-3 0  9992,2 25945  51.9980  23.9268 0000444 156.9976 237.2408 12.04773834123173,12.04773834,4.44e-05,LEO
25946,GLOBALSTAR M031,1999,118.42,-1.0,-,52.0,Inactive,0,LEO,Kazakhstan,Globalstar,Unknown,Unknown,Unknown,1 25946U 99058D   24206.54115476 -.00000145  00000+0 -55210-3 0  9991,2 25946  51.9977 295.8656 0001505 209.4934 273.3141 12.16012981124929,12.16012981,0.0001505,LEO
25961,GLOBALSTAR M039,1999,114.08,-1.0,-,51.98,Inactive,0,LEO,Kazakhstan,Globalstar,Unknown,Unknown,Unknown,1 25961U 99062A   24206.35550937 -.00000067  00000+0  20777-3 0  9999,2 25961  51.9820 187.2049 0002873 341.9718  18.1046 12.62297797138840,12.62297797,0.0002873,LEO
25962,GLOBALSTAR M034,1999,122.09,-1.0,-,51.99,Inactive,0,LEO,Kazakhstan,Globalstar,Unknown,Unknown,Unknown,1 25962U 99062B   24205.57479501 -.00000090  00000+0 -15097-3 0  9996,2 25962  51.9861 145.5777 0013615 139.6112  31.1819 11.79429107 99610,11.79429107,0.0013615,LEO
25963,GLOBALSTAR M029,1999,120.01,-1.0,-,51.98,Inactive,0,LEO,Kazakhstan,Globalstar,Unknown,Unknown,Unknown,1 25963U 99062C   24205.66090987 -.00000041  00000+0  55978-3 0  9991,2 25963  51.9792 264.2524 0002902 187.9976 339.7780 11.99880805129687,11.99880805,0.0002902,LEO
25964,GLOBALSTAR M061,1999,122.37,-1.0,-,51.98,Inactive,0,LEO,Kazakhstan,Globalstar,Unknown,Unknown,Unknown,1 25964U 99062D   24206.50085644 -.00000064  00000+0  27404-3 0  9998,2 25964  51.9818 322.8642 0006478  74.1913 323.5981 11.76762575 82892,11.76762575,0.0006478,LEO
